{"type": "FeatureCollection", "features": [ {"type": "Feature", "properties": {"norad_id": 40664, "name": "SKY MEXICO-1", "group": "intelsat", "lat": -0.015732692117984743, "lon": -125.42538420507566, "alt_km": 35777.06025408853, "timestamp": "2025-12-08T15:42:49.446441+00:00", "meta": {"OBJECT_NAME": "SKY MEXICO-1", "OBJECT_ID": "2015-026B", "EPOCH": "2025-12-08T06:12:57.416832", "MEAN_MOTION": 1.00270947, "ECCENTRICITY": 0.00027801, "INCLINATION": 0.0214, "RA_OF_ASC_NODE": 52.263, "ARG_OF_PERICENTER": 220.2774, "MEAN_ANOMALY": 179.2028, "EPHEMERIS_TYPE": 0, "CLASSIFICATION_TYPE": "U", "NORAD_CAT_ID": 40664, "ELEMENT_SET_NO": 999, "REV_AT_EPOCH": 3854, "BSTAR": 0, "MEAN_MOTION_DOT": -2.32e-06, "MEAN_MOTION_DDOT": 0}, "tle": {"line1": "1 40664U 15026B   25342.25899788 -.00000232  00000+0  00000+0 0  9992", "line2": "2 40664   0.0214  52.2630 0002780 220.2774 179.2028  1.00270947 38547"}}, "geometry": {"type": "Point", "coordinates": [-125.42538420507566, -0.015732692117984743]}}, {"type": "Feature", "properties": {"norad_id": 40874, "name": "INTELSAT 34 (IS-34)", "group": "intelsat", "lat": -0.027081801207845087, "lon": -102.1263540719406, "alt_km": 35785.50119265824, "timestamp": "2025-12-08T15:42:49.446453+00:00", "meta": {"OBJECT_NAME": "INTELSAT 34 (IS-34)", "OBJECT_ID": "2015-039A", "EPOCH": "2025-12-08T06:29:30.939072", "MEAN_MOTION": 1.00271964, "ECCENTRICITY": 6.283e-05, "INCLINATION": 0.0123, "RA_OF_ASC_NODE": 307.4102, "ARG_OF_PERICENTER": 233.0465, "MEAN_ANOMALY": 298.7086, "EPHEMERIS_TYPE": 0, "CLASSIFICATION_TYPE": "U", "NORAD_CAT_ID": 40874, "ELEMENT_SET_NO": 999, "REV_AT_EPOCH": 3771, "BSTAR": 0, "MEAN_MOTION_DOT": -2.83e-06, "MEAN_MOTION_DDOT": 0}, "tle": {"line1": "1 40874U 15039A   25342.27049698 -.00000283  00000+0  00000+0 0  9994", "line2": "2 40874   0.0123 307.4102 0000628 233.0465 298.7086  1.00271964 37715"}}, "geometry": {"type": "Point", "coordinates": [-102.1263540719406, -0.027081801207845087]}}, {"type": "Feature", "properties": {"norad_id": 41581, "name": "INTELSAT 31 (IS-31)", "group": "intelsat", "lat": -0.026842667775371726, "lon": -141.7061034093964, "alt_km": 35778.938166110056, "timestamp": "2025-12-08T15:42:49.446465+00:00", "meta": {"OBJECT_NAME": "INTELSAT 31 (IS-31)", "OBJECT_ID": "2016-035A", "EPOCH": "2025-12-08T06:04:13.177056", "MEAN_MOTION": 1.00268431, "ECCENTRICITY": 0.0001922, "INCLINATION": 0.021, "RA_OF_ASC_NODE": 269.7076, "ARG_OF_PERICENTER": 310.8564, "MEAN_ANOMALY": 212.6932, "EPHEMERIS_TYPE": 0, "CLASSIFICATION_TYPE": "U", "NORAD_CAT_ID": 41581, "ELEMENT_SET_NO": 999, "REV_AT_EPOCH": 3476, "BSTAR": 0, "MEAN_MOTION_DOT": -1.48e-06, "MEAN_MOTION_DDOT": 0}, "tle": {"line1": "1 41581U 16035A   25342.25293029 -.00000148  00000+0  00000+0 0  9994", "line2": "2 41581   0.0210 269.7076 0001922 310.8564 212.6932  1.00268431 34762"}}, "geometry": {"type": "Point", "coordinates": [-141.7061034093964, -0.026842667775371726]}}, {"type": "Feature", "properties": {"norad_id": 41747, "name": "INTELSAT 36 (IS-36)", "group": "intelsat", "lat": 0.0202275212453731, "lon": 21.88029246338973, "alt_km": 35783.71150657494, "timestamp": "2025-12-08T15:42:49.446476+00:00", "meta": {"OBJECT_NAME": "INTELSAT 36 (IS-36)", "OBJECT_ID": "2016-053A", "EPOCH": "2025-12-08T03:39:17.243424", "MEAN_MOTION": 1.0027228, "ECCENTRICITY": 0.00015294, "INCLINATION": 0.0115, "RA_OF_ASC_NODE": 347.1114, "ARG_OF_PERICENTER": 325.115, "MEAN_ANOMALY": 248.2617, "EPHEMERIS_TYPE": 0, "CLASSIFICATION_TYPE": "U", "NORAD_CAT_ID": 41747, "ELEMENT_SET_NO": 999, "REV_AT_EPOCH": 3403, "BSTAR": 0, "MEAN_MOTION_DOT": -2.2e-07, "MEAN_MOTION_DDOT": 0}, "tle": {"line1": "1 41747U 16053A   25342.15228291 -.00000022  00000+0  00000+0 0  9997", "line2": "2 41747   0.0115 347.1114 0001529 325.1150 248.2617  1.00272280 34039"}}, "geometry": {"type": "Point", "coordinates": [21.88029246338973, 0.0202275212453731]}}, {"type": "Feature", "properties": {"norad_id": 41945, "name": "INTELSAT 32E (IS-32E)", "group": "intelsat", "lat": -0.025112843265657412, "lon": -89.81660847135934, "alt_km": 35785.60686168982, "timestamp": "2025-12-08T15:42:49.446488+00:00", "meta": {"OBJECT_NAME": "INTELSAT 32E (IS-32E)", "OBJECT_ID": "2017-007B", "EPOCH": "2025-12-08T06:33:00.604224", "MEAN_MOTION": 1.0027176, "ECCENTRICITY": 2.919e-05, "INCLINATION": 0.0272, "RA_OF_ASC_NODE": 67.8418, "ARG_OF_PERICENTER": 266.9052, "MEAN_ANOMALY": 157.6142, "EPHEMERIS_TYPE": 0, "CLASSIFICATION_TYPE": "U", "NORAD_CAT_ID": 41945, "ELEMENT_SET_NO": 999, "REV_AT_EPOCH": 3231, "BSTAR": 0, "MEAN_MOTION_DOT": -2.66e-06, "MEAN_MOTION_DDOT": 0}, "tle": {"line1": "1 41945U 17007B   25342.27292366 -.00000266  00000+0  00000+0 0  9994", "line2": "2 41945   0.0272  67.8418 0000291 266.9052 157.6142  1.00271760 32311"}}, "geometry": {"type": "Point", "coordinates": [-89.81660847135934, -0.025112843265657412]}}, {"type": "Feature", "properties": {"norad_id": 42818, "name": "INTELSAT 35E (IS-35E)", "group": "intelsat", "lat": -0.03088091964522089, "lon": -81.12942867200319, "alt_km": 35777.138699695635, "timestamp": "2025-12-08T15:42:49.446499+00:00", "meta": {"OBJECT_NAME": "INTELSAT 35E (IS-35E)", "OBJECT_ID": "2017-041A", "EPOCH": "2025-12-08T06:35:30.364800", "MEAN_MOTION": 1.00269509, "ECCENTRICITY": 0.0002351, "INCLINATION": 0.0174, "RA_OF_ASC_NODE": 326.6076, "ARG_OF_PERICENTER": 297.3306, "MEAN_ANOMALY": 237.7291, "EPHEMERIS_TYPE": 0, "CLASSIFICATION_TYPE": "U", "NORAD_CAT_ID": 42818, "ELEMENT_SET_NO": 999, "REV_AT_EPOCH": 3090, "BSTAR": 0, "MEAN_MOTION_DOT": -2.36e-06, "MEAN_MOTION_DDOT": 0}, "tle": {"line1": "1 42818U 17041A   25342.27465700 -.00000236  00000+0  00000+0 0  9993", "line2": "2 42818   0.0174 326.6076 0002351 297.3306 237.7291  1.00269509 30903"}}, "geometry": {"type": "Point", "coordinates": [-81.12942867200319, -0.03088091964522089]}}, {"type": "Feature", "properties": {"norad_id": 42950, "name": "INTELSAT 37E (IS-37E)", "group": "intelsat", "lat": -0.029499077262137435, "lon": -64.61375480676794, "alt_km": 35775.58918160438, "timestamp": "2025-12-08T15:42:49.446511+00:00", "meta": {"OBJECT_NAME": "INTELSAT 37E (IS-37E)", "OBJECT_ID": "2017-059A", "EPOCH": "2025-12-08T06:40:14.911104", "MEAN_MOTION": 1.00270744, "ECCENTRICITY": 0.00034224, "INCLINATION": 0.0159, "RA_OF_ASC_NODE": 349.2453, "ARG_OF_PERICENTER": 264.2534, "MEAN_ANOMALY": 265.8521, "EPHEMERIS_TYPE": 0, "CLASSIFICATION_TYPE": "U", "NORAD_CAT_ID": 42950, "ELEMENT_SET_NO": 999, "REV_AT_EPOCH": 3015, "BSTAR": 0, "MEAN_MOTION_DOT": -1.38e-06, "MEAN_MOTION_DDOT": 0}, "tle": {"line1": "1 42950U 17059A   25342.27795036 -.00000138  00000+0  00000+0 0  9998", "line2": "2 42950   0.0159 349.2453 0003422 264.2534 265.8521  1.00270744 30157"}}, "geometry": {"type": "Point", "coordinates": [-64.61375480676794, -0.029499077262137435]}}, {"type": "Feature", "properties": {"norad_id": 43632, "name": "AZERSPACE 2 (IS-38)", "group": "intelsat", "lat": 0.01493735959272748, "lon": -1.511404753688827, "alt_km": 35787.92213677901, "timestamp": "2025-12-08T15:42:49.446522+00:00", "meta": {"OBJECT_NAME": "AZERSPACE 2 (IS-38)", "OBJECT_ID": "2018-074A", "EPOCH": "2025-12-08T06:07:21.523008", "MEAN_MOTION": 1.0026972, "ECCENTRICITY": 0.00015919, "INCLINATION": 0.0173, "RA_OF_ASC_NODE": 332.871, "ARG_OF_PERICENTER": 284.369, "MEAN_ANOMALY": 316.9779, "EPHEMERIS_TYPE": 0, "CLASSIFICATION_TYPE": "U", "NORAD_CAT_ID": 43632, "ELEMENT_SET_NO": 999, "REV_AT_EPOCH": 2653, "BSTAR": 0, "MEAN_MOTION_DOT": 1.39e-06, "MEAN_MOTION_DDOT": 0}, "tle": {"line1": "1 43632U 18074A   25342.25511022  .00000139  00000+0  00000+0 0  9993", "line2": "2 43632   0.0173 332.8710 0001591 284.3690 316.9779  1.00269720 26538"}}, "geometry": {"type": "Point", "coordinates": [-1.511404753688827, 0.01493735959272748]}}, {"type": "Feature", "properties": {"norad_id": 43633, "name": "HORIZONS-3E", "group": "intelsat", "lat": -0.011924341423580674, "lon": 122.36660776372287, "alt_km": 35791.63422582922, "timestamp": "2025-12-08T15:42:49.446534+00:00", "meta": {"OBJECT_NAME": "HORIZONS-3E", "OBJECT_ID": "2018-074B", "EPOCH": "2025-12-08T02:25:24.320352", "MEAN_MOTION": 1.00268903, "ECCENTRICITY": 0.00012308, "INCLINATION": 0.0431, "RA_OF_ASC_NODE": 177.3219, "ARG_OF_PERICENTER": 101.283, "MEAN_ANOMALY": 3.8771, "EPHEMERIS_TYPE": 0, "CLASSIFICATION_TYPE": "U", "NORAD_CAT_ID": 43633, "ELEMENT_SET_NO": 999, "REV_AT_EPOCH": 2642, "BSTAR": 0, "MEAN_MOTION_DOT": -2.8e-07, "MEAN_MOTION_DDOT": 0}, "tle": {"line1": "1 43633U 18074B   25342.10097593 -.00000028  00000+0  00000+0 0  9998", "line2": "2 43633   0.0431 177.3219 0001230 101.2830   3.8771  1.00268903 26429"}}, "geometry": {"type": "Point", "coordinates": [122.36660776372287, -0.011924341423580674]}}, {"type": "Feature", "properties": {"norad_id": 44333, "name": "AT&T T-16", "group": "intelsat", "lat": -0.0025746550013411858, "lon": -147.49594595935903, "alt_km": 35785.38147997474, "timestamp": "2025-12-08T15:42:49.446545+00:00", "meta": {"OBJECT_NAME": "AT&T T-16", "OBJECT_ID": "2019-034A", "EPOCH": "2025-12-08T06:00:20.102688", "MEAN_MOTION": 1.00269203, "ECCENTRICITY": 5.34e-05, "INCLINATION": 0.0242, "RA_OF_ASC_NODE": 60.8928, "ARG_OF_PERICENTER": 101.4278, "MEAN_ANOMALY": 264.1661, "EPHEMERIS_TYPE": 0, "CLASSIFICATION_TYPE": "U", "NORAD_CAT_ID": 44333, "ELEMENT_SET_NO": 999, "REV_AT_EPOCH": 2371, "BSTAR": 0, "MEAN_MOTION_DOT": -1.12e-06, "MEAN_MOTION_DDOT": 0}, "tle": {"line1": "1 44333U 19034A   25342.25023267 -.00000112  00000+0  00000+0 0  9990", "line2": "2 44333   0.0242  60.8928 0000534 101.4278 264.1661  1.00269203 23717"}}, "geometry": {"type": "Point", "coordinates": [-147.49594595935903, -0.0025746550013411858]}}]}